H1 CPF 01  gfz 2022 07 25 00  7061 terrasarx 
H2 0702601  6201 31698    2022 07 25 00 59 42 2022 07 30 00 00 42   120 1 1  0 0 0
H9
10 0 59787  79182.000000  0   -1580872.846   4066226.358  -5338403.757
10 0 59787  79302.000000  0   -1113771.275   3466230.557  -5854969.600
10 0 59787  79422.000000  0    -638443.514   2797851.591  -6269231.992
10 0 59787  79542.000000  0    -164240.215   2072663.083  -6574041.392
10 0 59787  79662.000000  0     299733.584   1303358.384  -6764147.488
10 0 59787  79782.000000  0     744788.423    503529.653  -6836280.946
10 0 59787  79902.000000  0    1162809.537   -312568.382  -6789203.761
10 0 59787  80022.000000  0    1546400.947  -1130267.696  -6623727.074
10 0 59787  80142.000000  0    1889012.695  -1934743.488  -6342697.728
10 0 59787  80262.000000  0    2185051.188  -2711275.891  -5950955.142
10 0 59787  80382.000000  0    2429970.398  -3445514.711  -5455258.279
10 0 59787  80502.000000  0    2620343.355  -4123745.381  -4864180.222
10 0 59787  80622.000000  0    2753910.796  -4733146.502  -4187968.856
10 0 59787  80742.000000  0    2829606.641  -5262035.375  -3438380.085
10 0 59787  80862.000000  0    2847559.982  -5700100.373  -2628482.952
10 0 59787  80982.000000  0    2809072.931  -6038611.558  -1772436.525
10 0 59787  81102.000000  0    2716575.005  -6270604.857   -885243.797
10 0 59787  81222.000000  0    2573552.647  -6391034.406     17515.121
10 0 59787  81342.000000  0    2384455.859  -6396886.620    919962.972
10 0 59787  81462.000000  0    2154585.523  -6287255.458   1806212.078
10 0 59787  81582.000000  0    1889962.648  -6063374.776   2660654.521
10 0 59787  81702.000000  0    1597183.273  -5728605.829   3468245.249
10 0 59787  81822.000000  0    1283263.381  -5288382.671   4214772.821
10 0 59787  81942.000000  0     955477.609  -4750117.119   4887112.510
10 0 59787  82062.000000  0     621195.991  -4123066.512   5473458.722
10 0 59787  82182.000000  0     287721.522  -3418164.339   5963531.386
10 0 59787  82302.000000  0     -37865.782  -2647819.565   6348750.867
10 0 59787  82422.000000  0    -348856.213  -1825691.976   6622380.886
10 0 59787  82542.000000  0    -639045.800   -966447.158   6779640.232
10 0 59787  82662.000000  0    -902858.186    -85493.301   6817782.404
10 0 59787  82782.000000  0   -1135450.793    801295.956   6736140.903
10 0 59787  82902.000000  0   -1332803.249   1677867.182   6536139.779
10 0 59787  83022.000000  0   -1491786.735   2528276.949   6221270.369
10 0 59787  83142.000000  0   -1610213.916   3336981.940   5797034.220
10 0 59787  83262.000000  0   -1686868.149   4089124.658   5270852.077
10 0 59787  83382.000000  0   -1721511.362   4770810.467   4651941.096
10 0 59787  83502.000000  0   -1714871.264   5369371.536   3951158.789
10 0 59787  83622.000000  0   -1668606.684   5873610.719   3180816.046
10 0 59787  83742.000000  0   -1585253.615   6274020.110   2354462.050
10 0 59787  83862.000000  0   -1468151.525   6562969.975   1486644.000
10 0 59787  83982.000000  0   -1321350.431   6734862.190    592645.880
10 0 59787  84102.000000  0   -1149502.537   6786243.645   -311787.253
10 0 59787  84222.000000  0    -957741.204   6715878.949  -1210735.236
10 0 59787  84342.000000  0    -751548.943   6524776.125  -2088394.602
10 0 59787  84462.000000  0    -536619.895   6216164.077  -2929364.329
10 0 59787  84582.000000  0    -318720.356   5795427.425  -3718919.395
10 0 59787  84702.000000  0    -103549.868   5270001.432  -4443269.307
10 0 59787  84822.000000  0     103393.551   4649228.374  -5089796.805
10 0 59787  84942.000000  0     296941.100   3944179.963  -5647271.840
10 0 59787  85062.000000  0     472370.842   3167449.772  -6106038.413
10 0 59787  85182.000000  0     625512.268   2332920.546  -6458170.923
10 0 59787  85302.000000  0     752836.463   1455513.034  -6697599.217
10 0 59787  85422.000000  0     851530.622    550920.343  -6820203.095
10 0 59787  85542.000000  0     919555.320   -364668.921  -6823875.744
10 0 59787  85662.000000  0     955684.098  -1274854.943  -6708555.387
10 0 59787  85782.000000  0     959524.677  -2163312.574  -6476224.434
10 0 59787  85902.000000  0     931522.385  -3014075.614  -6130879.985
10 0 59787  86022.000000  0     872945.059  -3811820.017  -5678474.744
10 0 59787  86142.000000  0     785848.839  -4542139.425  -5126823.432
10 0 59787  86262.000000  0     673027.167  -5191806.727  -4485478.833
10 0 59787  86382.000000  0     537942.086  -5749019.992  -3765577.972
10 0 59788    102.000000  0     384639.306  -6203626.534  -2979657.539
10 0 59788    222.000000  0     217648.856  -6547319.291  -2141442.190
10 0 59788    342.000000  0      41873.395  -6773802.202  -1265607.783
10 0 59788    462.000000  0    -137533.774  -6878917.843   -367522.431
10 0 59788    582.000000  0    -315297.838  -6860733.204    537027.994
10 0 59788    702.000000  0    -486155.558  -6719582.145   1432123.943
10 0 59788    822.000000  0    -644988.975  -6458063.132   2302001.264
10 0 59788    942.000000  0    -786956.203  -6080990.467   3131338.645
10 0 59788   1062.000000  0    -907614.671  -5595299.241   3905536.139
10 0 59788   1182.000000  0   -1003035.355  -5009908.680   4610976.160
10 0 59788   1302.000000  0   -1069905.081  -4335549.062   5235264.536
10 0 59788   1422.000000  0   -1105613.338  -3584555.951   5767448.057
10 0 59788   1542.000000  0   -1108323.036  -2770634.174   6198204.369
10 0 59788   1662.000000  0   -1077022.269  -1908599.233   6519998.130
10 0 59788   1782.000000  0   -1011557.167  -1014104.367   6727205.869
10 0 59788   1902.000000  0    -912646.397   -103354.234   6816209.576
10 0 59788   2022.000000  0    -781876.329    807189.242   6785455.777
10 0 59788   2142.000000  0    -621675.453   1701103.945   6635481.350
10 0 59788   2262.000000  0    -435269.156   2562303.321   6368904.633
10 0 59788   2382.000000  0    -226615.934   3375325.707   5990382.497
10 0 59788   2502.000000  0       -326.504   4125613.666   5506533.977
10 0 59788   2622.000000  0     238433.410   4799778.274   4925830.147
10 0 59788   2742.000000  0     484055.562   5385845.060   4258452.482
10 0 59788   2862.000000  0     730613.589   5873474.388   3516116.798
10 0 59788   2982.000000  0     971996.930   6254152.198   2711874.159
10 0 59788   3102.000000  0    1202054.584   6521354.403   1859879.560
10 0 59788   3222.000000  0    1414740.328   6670664.430    975136.573
10 0 59788   3342.000000  0    1604258.320   6699851.723     73226.426
10 0 59788   3462.000000  0    1765205.045   6608905.219   -829974.465
10 0 59788   3582.000000  0    1892703.266   6400022.685  -1718582.009
10 0 59788   3702.000000  0    1982525.402   6077556.720  -2576991.067
10 0 59788   3822.000000  0    2031203.146   5647918.346  -3390155.723
10 0 59788   3942.000000  0    2036120.569   5119440.306  -4143857.044
10 0 59788   4062.000000  0    1995588.361   4502203.520  -4824951.600
10 0 59788   4182.000000  0    1908897.486   3807833.369  -5421595.739
10 0 59788   4302.000000  0    1776352.394   3049271.857  -5923443.458
10 0 59788   4422.000000  0    1599282.439   2240529.552  -6321816.070
10 0 59788   4542.000000  0    1380031.996   1396423.551  -6609840.169
10 0 59788   4662.000000  0    1121930.856    532307.358  -6782555.553
10 0 59788   4782.000000  0     829243.684   -336204.994  -6836992.262
10 0 59788   4902.000000  0     507099.833  -1193515.897  -6772215.230
10 0 59788   5022.000000  0     161405.274  -2024316.859  -6589336.998
10 0 59788   5142.000000  0    -201262.034  -2813853.781  -6291501.570
10 0 59788   5262.000000  0    -573773.834  -3548185.332  -5883837.742
10 0 59788   5382.000000  0    -948586.974  -4214427.203  -5373378.941
10 0 59788   5502.000000  0   -1317890.914  -4800979.660  -4768953.655
10 0 59788   5622.000000  0   -1673765.996  -5297735.508  -4081044.322
10 0 59788   5742.000000  0   -2008349.224  -5696262.943  -3321615.389
10 0 59788   5862.000000  0   -2314003.771  -5989959.048  -2503912.885
10 0 59788   5982.000000  0   -2583488.741  -6174170.766  -1642238.216
10 0 59788   6102.000000  0   -2810125.271  -6246280.114   -751698.653
10 0 59788   6222.000000  0   -2987954.661  -6205749.519    152061.576
10 0 59788   6342.000000  0   -3111883.706  -6054124.698   1053143.054
10 0 59788   6462.000000  0   -3177813.612  -5794995.687   1935679.441
10 0 59788   6582.000000  0   -3182748.998  -5433915.993   2784126.236
10 0 59788   6702.000000  0   -3124883.929  -4978282.306   3583542.566
10 0 59788   6822.000000  0   -3003662.892  -4437178.630   4319860.385
10 0 59788   6942.000000  0   -2819815.875  -3821188.477   4980135.532
10 0 59788   7062.000000  0   -2575367.045  -3142179.874   5552775.827
10 0 59788   7182.000000  0   -2273615.596  -2413069.053   6027741.938
10 0 59788   7302.000000  0   -1919090.832  -1647569.663   6396718.652
10 0 59788   7422.000000  0   -1517481.944   -859930.957   6653256.180
10 0 59788   7542.000000  0   -1075543.926    -64668.607   6792875.941
10 0 59788   7662.000000  0    -600983.711    723702.208   6813141.998
10 0 59788   7782.000000  0    -102326.031   1490930.742   6713701.903
10 0 59788   7902.000000  0     411239.634   2223288.114   6496292.682
10 0 59788   8022.000000  0     930028.106   2907812.879   6164711.867
10 0 59788   8142.000000  0    1444040.083   3532540.770   5724755.365
10 0 59788   8262.000000  0    1943153.815   4086716.975   5184122.083
10 0 59788   8382.000000  0    2417324.533   4560986.594   4552285.573
10 0 59788   8502.000000  0    2856787.789   4947558.752   3840332.385
10 0 59788   8622.000000  0    3252260.666   5240340.342   3060771.752
10 0 59788   8742.000000  0    3595140.181   5435041.311   2227318.333
10 0 59788   8862.000000  0    3877691.965   5529242.048   1354645.549
10 0 59788   8982.000000  0    4093221.527   5522422.485    458122.689
10 0 59788   9102.000000  0    4236227.546   5415954.082   -446464.471
10 0 59788   9222.000000  0    4302531.564   5213050.926  -1343200.016
99
